*******************************************************************************
Ephemeris / WWW_USER Mon Mar 10 06:51:57 2025 Pasadena, USA      / Horizons    
*******************************************************************************
Target body name: (2018 WV1)                      {source: JPL#17}
Center body name: Earth (399)                     {source: DE441}
Center-site name: Mauna Kea
*******************************************************************************
Start time      : A.D. 2018-Nov-23 03:51:00.0000 UT      
Stop  time      : A.D. 2018-Nov-23 16:25:00.0000 UT      
Step-size       : 1 minutes
*******************************************************************************
Target pole/equ : undefined
Target radii    : undefined                                                    
Center geodetic : 204.5278, 19.8260847, 4.21024   {E-lon(deg),Lat(deg),Alt(km)}
Center cylindric: 204.5278, 6006.35451, 2151.0229 {E-lon(deg),Dxy(km),Dz(km)}
Center pole/equ : ITRF93                          {East-longitude positive}
Center radii    : 6378.137, 6378.137, 6356.752 km {Equator_a, b, pole_c}       
Target primary  : Sun
Vis. interferer : MOON (R_eq= 1737.400) km        {source: DE441}
Rel. light bend : Sun                             {source: DE441}
Rel. lght bnd GM: 1.3271E+11 km^3/s^2                                          
Small-body perts: Yes                             {source: SB441-N16}
Atmos refraction: NO (AIRLESS)
RA format       : HMS
Time format     : CAL 
Calendar mode   : Mixed Julian/Gregorian
RTS-only print  : NO       
EOP file        : eop.250307.p250603                                           
EOP coverage    : DATA-BASED 1962-JAN-20 TO 2025-MAR-07. PREDICTS-> 2025-JUN-02
Units conversion: 1 au= 149597870.700 km, c= 299792.458 km/s, 1 day= 86400.0 s 
Table cut-offs 1: Elevation (-90.0deg=NO ),Airmass (>38.000=NO), Daylight (YES)
Table cut-offs 2: Solar elongation (  0.0,180.0=NO ),Local Hour Angle( 0.0=NO )
Table cut-offs 3: RA/DEC angular rate (     0.0=NO )                           
*******************************************************************************
Initial IAU76/J2000 heliocentric ecliptic osculating elements (au, days, deg.):
  EPOCH=  2458458.5 ! 2018-Dec-06.00 (TDB)         Residual RMS= .12928        
   EC= .06869100257422787  QR= .9715505345748198   TP= 2458416.866413563       
   OM= 248.5061090469913   W=  141.3742304527303   IN= 1.905403987972275       
  Equivalent ICRF heliocentric cartesian coordinates (au, au/d):
   X= 2.787163119783287E-01  Y= 8.719775267121872E-01  Z= 3.748421051204766E-01
  VX=-1.676682657337402E-02 VY= 5.516972965834891E-03 VZ= 1.749720915605096E-03
Asteroid physical parameters (km, seconds, rotational period in hours):        
   GM= n.a.                RAD= n.a.               ROTPER= n.a.                
   H= 30.3                 G= .150                 B-V= n.a.                   
                           ALBEDO= n.a.            STYP= n.a.                  
*******************************************************************************
 Date__(UT)__HR:MN     R.A._________(ICRF)_________DEC
******************************************************
$$SOE
 2018-Nov-23 12:03  m  01 22 49.653938 +22 47 32.41035
 2018-Nov-23 12:04  m  01 22 49.475964 +22 47 31.40216
 2018-Nov-23 12:05  m  01 22 49.299019 +22 47 30.39148
 2018-Nov-23 12:06  m  01 22 49.123105 +22 47 29.37831
 2018-Nov-23 12:07  m  01 22 48.948224 +22 47 28.36270
 2018-Nov-23 12:08  m  01 22 48.774377 +22 47 27.34465
 2018-Nov-23 12:09  m  01 22 48.601568 +22 47 26.32420
 2018-Nov-23 12:10  m  01 22 48.429797 +22 47 25.30136
 2018-Nov-23 12:11  m  01 22 48.259068 +22 47 24.27617
 2018-Nov-23 12:12  m  01 22 48.089381 +22 47 23.24866
 2018-Nov-23 12:13  m  01 22 47.920740 +22 47 22.21883
 2018-Nov-23 12:14  m  01 22 47.753146 +22 47 21.18673
 2018-Nov-23 12:15  m  01 22 47.586600 +22 47 20.15236
 2018-Nov-23 12:16  m  01 22 47.421106 +22 47 19.11577
 2018-Nov-23 12:17  m  01 22 47.256664 +22 47 18.07697
 2018-Nov-23 12:18  m  01 22 47.093276 +22 47 17.03599
 2018-Nov-23 12:19  m  01 22 46.930945 +22 47 15.99286
 2018-Nov-23 12:20  m  01 22 46.769673 +22 47 14.94759
 2018-Nov-23 12:21  m  01 22 46.609460 +22 47 13.90022
 2018-Nov-23 12:22  m  01 22 46.450310 +22 47 12.85077
 2018-Nov-23 12:23  m  01 22 46.292223 +22 47 11.79926
 2018-Nov-23 12:24  m  01 22 46.135201 +22 47 10.74573
 2018-Nov-23 12:25  m  01 22 45.979246 +22 47 09.69019
 2018-Nov-23 12:26  m  01 22 45.824361 +22 47 08.63267
 2018-Nov-23 12:27  m  01 22 45.670546 +22 47 07.57320
 2018-Nov-23 12:28  m  01 22 45.517803 +22 47 06.51180
 2018-Nov-23 12:29  m  01 22 45.366134 +22 47 05.44850
 2018-Nov-23 12:30  m  01 22 45.215540 +22 47 04.38332
 2018-Nov-23 12:31  m  01 22 45.066024 +22 47 03.31630
 2018-Nov-23 12:32  m  01 22 44.917586 +22 47 02.24744
 2018-Nov-23 12:33  m  01 22 44.770229 +22 47 01.17679
 2018-Nov-23 12:34  m  01 22 44.623953 +22 47 00.10436
 2018-Nov-23 12:35  m  01 22 44.478761 +22 46 59.03018
 2018-Nov-23 12:36  m  01 22 44.334653 +22 46 57.95429
 2018-Nov-23 12:37  m  01 22 44.191632 +22 46 56.87669
 2018-Nov-23 12:38  m  01 22 44.049698 +22 46 55.79742
 2018-Nov-23 12:39  m  01 22 43.908854 +22 46 54.71651
 2018-Nov-23 12:40  m  01 22 43.769100 +22 46 53.63398
 2018-Nov-23 12:41  m  01 22 43.630438 +22 46 52.54986
 2018-Nov-23 12:42  m  01 22 43.492869 +22 46 51.46417
 2018-Nov-23 12:43  m  01 22 43.356396 +22 46 50.37694
 2018-Nov-23 12:44  m  01 22 43.221018 +22 46 49.28819
 2018-Nov-23 12:45  m  01 22 43.086738 +22 46 48.19796
 2018-Nov-23 12:46  m  01 22 42.953556 +22 46 47.10626
 2018-Nov-23 12:47  m  01 22 42.821474 +22 46 46.01313
 2018-Nov-23 12:48  m  01 22 42.690494 +22 46 44.91858
 2018-Nov-23 12:49  m  01 22 42.560616 +22 46 43.82265
 2018-Nov-23 12:50  m  01 22 42.431841 +22 46 42.72537
 2018-Nov-23 12:51  m  01 22 42.304171 +22 46 41.62675
 2018-Nov-23 12:52  m  01 22 42.177608 +22 46 40.52682
 2018-Nov-23 12:53  m  01 22 42.052151 +22 46 39.42562
 2018-Nov-23 12:54  m  01 22 41.927802 +22 46 38.32316
 2018-Nov-23 12:55  m  01 22 41.804563 +22 46 37.21948
 2018-Nov-23 12:56  m  01 22 41.682434 +22 46 36.11459
 2018-Nov-23 12:57  m  01 22 41.561417 +22 46 35.00853
 2018-Nov-23 12:58  m  01 22 41.441512 +22 46 33.90133
 2018-Nov-23 12:59  m  01 22 41.322720 +22 46 32.79300
 2018-Nov-23 13:00  m  01 22 41.205043 +22 46 31.68358
 2018-Nov-23 13:01  m  01 22 41.088482 +22 46 30.57309
 2018-Nov-23 13:02  m  01 22 40.973037 +22 46 29.46156
 2018-Nov-23 13:03  m  01 22 40.858709 +22 46 28.34901
 2018-Nov-23 13:04  m  01 22 40.745499 +22 46 27.23548
 2018-Nov-23 13:05  m  01 22 40.633408 +22 46 26.12098
 2018-Nov-23 13:06  m  01 22 40.522438 +22 46 25.00555
 2018-Nov-23 13:07  m  01 22 40.412588 +22 46 23.88921
 2018-Nov-23 13:08  m  01 22 40.303860 +22 46 22.77199
 2018-Nov-23 13:09  m  01 22 40.196254 +22 46 21.65391
 2018-Nov-23 13:10  m  01 22 40.089771 +22 46 20.53500
 2018-Nov-23 13:11  m  01 22 39.984412 +22 46 19.41529
 2018-Nov-23 13:12  m  01 22 39.880178 +22 46 18.29481
 2018-Nov-23 13:13  m  01 22 39.777069 +22 46 17.17357
 2018-Nov-23 13:14  m  01 22 39.675087 +22 46 16.05162
 2018-Nov-23 13:15  m  01 22 39.574231 +22 46 14.92897
 2018-Nov-23 13:16  m  01 22 39.474502 +22 46 13.80565
 2018-Nov-23 13:17  m  01 22 39.375901 +22 46 12.68169
 2018-Nov-23 13:18  m  01 22 39.278429 +22 46 11.55711
 2018-Nov-23 13:19  m  01 22 39.182086 +22 46 10.43194
 2018-Nov-23 13:20  m  01 22 39.086873 +22 46 09.30622
 2018-Nov-23 13:21  m  01 22 38.992790 +22 46 08.17996
 2018-Nov-23 13:22  m  01 22 38.899838 +22 46 07.05319
 2018-Nov-23 13:23  m  01 22 38.808017 +22 46 05.92594
 2018-Nov-23 13:24  m  01 22 38.717328 +22 46 04.79823
 2018-Nov-23 13:25  m  01 22 38.627771 +22 46 03.67010
 2018-Nov-23 13:26  m  01 22 38.539346 +22 46 02.54157
 2018-Nov-23 13:27  m  01 22 38.452054 +22 46 01.41267
 2018-Nov-23 13:28  m  01 22 38.365896 +22 46 00.28341
 2018-Nov-23 13:29  m  01 22 38.280872 +22 45 59.15384
 2018-Nov-23 13:30  m  01 22 38.196981 +22 45 58.02398
 2018-Nov-23 13:31  m  01 22 38.114225 +22 45 56.89385
 2018-Nov-23 13:32  m  01 22 38.032604 +22 45 55.76348
 2018-Nov-23 13:33  m  01 22 37.952117 +22 45 54.63289
 2018-Nov-23 13:34  m  01 22 37.872766 +22 45 53.50213
 2018-Nov-23 13:35  m  01 22 37.794550 +22 45 52.37120
 2018-Nov-23 13:36  m  01 22 37.717470 +22 45 51.24014
 2018-Nov-23 13:37  m  01 22 37.641525 +22 45 50.10898
 2018-Nov-23 13:38  m  01 22 37.566717 +22 45 48.97774
 2018-Nov-23 13:39  m  01 22 37.493044 +22 45 47.84645
 2018-Nov-23 13:40  m  01 22 37.420508 +22 45 46.71514
 2018-Nov-23 13:41  m  01 22 37.349108 +22 45 45.58383
 2018-Nov-23 13:42  m  01 22 37.278845 +22 45 44.45255
 2018-Nov-23 13:43  m  01 22 37.209718 +22 45 43.32132
 2018-Nov-23 13:44  m  01 22 37.141727 +22 45 42.19018
 2018-Nov-23 13:45  m  01 22 37.074873 +22 45 41.05915
 2018-Nov-23 13:46  m  01 22 37.009155 +22 45 39.92826
 2018-Nov-23 13:47  m  01 22 36.944574 +22 45 38.79754
 2018-Nov-23 13:48  m  01 22 36.881129 +22 45 37.66700
 2018-Nov-23 13:49  m  01 22 36.818821 +22 45 36.53669
 2018-Nov-23 13:50  m  01 22 36.757648 +22 45 35.40662
 2018-Nov-23 13:51  m  01 22 36.697612 +22 45 34.27682
 2018-Nov-23 13:52  m  01 22 36.638711 +22 45 33.14732
 2018-Nov-23 13:53  m  01 22 36.580947 +22 45 32.01815
 2018-Nov-23 13:54  m  01 22 36.524318 +22 45 30.88933
 2018-Nov-23 13:55  m  01 22 36.468824 +22 45 29.76089
 2018-Nov-23 13:56  m  01 22 36.414465 +22 45 28.63286
 2018-Nov-23 13:57  m  01 22 36.361241 +22 45 27.50526
 2018-Nov-23 13:58  m  01 22 36.309152 +22 45 26.37812
 2018-Nov-23 13:59  m  01 22 36.258197 +22 45 25.25147
 2018-Nov-23 14:00  m  01 22 36.208376 +22 45 24.12534
 2018-Nov-23 14:01  m  01 22 36.159689 +22 45 22.99974
 2018-Nov-23 14:02  m  01 22 36.112134 +22 45 21.87472
 2018-Nov-23 14:03  m  01 22 36.065713 +22 45 20.75029
 2018-Nov-23 14:04  m  01 22 36.020424 +22 45 19.62648
 2018-Nov-23 14:05  m  01 22 35.976268 +22 45 18.50332
